start=new Date('2022-04-24T00:00:00.000Z').valueOf();
sats=[{"GP_ID":"201881244","ECCENTRICITY":"0.00015540","APOAPSIS":"548.311","COUNTRY_CODE":"US","MEAN_ELEMENT_THEORY":"SGP4","OBJECT_NAME":"STARLINK-2339","TLE_LINE2":"2 47881  53.0559 159.3952 0001554  58.3285 301.7855 15.06393164 62552","REV_AT_EPOCH":"6255","SEMIMAJOR_AXIS":"6925.370","OBJECT_ID":"2021-021X","LAUNCH_DATE":"2021-03-14","NORAD_CAT_ID":"47881","DECAY_DATE":null,"RA_OF_ASC_NODE":"159.3952","BSTAR":"-0.00007948100000","CLASSIFICATION_TYPE":"U","MEAN_MOTION_DDOT":"0.0000000000000","CENTER_NAME":"EARTH","SITE":"AFETR","INCLINATION":"53.0559","TIME_SYSTEM":"UTC","MEAN_MOTION":"15.06393164","EPOCH":"2022-04-23T10:42:05.933664","REF_FRAME":"TEME","TLE_LINE1":"1 47881U 21021X   22113.44590201 -.00001465  00000-0 -79481-4 0  9999","FILE":"3412883","ELEMENT_SET_NO":"999","OBJECT_TYPE":"PAYLOAD","EPHEMERIS_TYPE":"0","PERIAPSIS":"546.158","RCS_SIZE":"LARGE","PERIOD":"95.593","ARG_OF_PERICENTER":"58.3285","MEAN_ANOMALY":"301.7855","MEAN_MOTION_DOT":"-0.00001465"},{"MEAN_MOTION_DOT":"-0.00000202","MEAN_ANOMALY":"301.4785","ARG_OF_PERICENTER":"58.6342","PERIOD":"95.593","RCS_SIZE":"LARGE","EPHEMERIS_TYPE":"0","PERIAPSIS":"546.264","OBJECT_TYPE":"PAYLOAD","FILE":"3413140","ELEMENT_SET_NO":"999","TLE_LINE1":"1 47882U 21021Y   22113.48737055 -.00000202  00000-0  53150-5 0  9997","REF_FRAME":"TEME","EPOCH":"2022-04-23T11:41:48.815520","MEAN_MOTION":"15.06391138","TIME_SYSTEM":"UTC","INCLINATION":"53.0548","SITE":"AFETR","CENTER_NAME":"EARTH","MEAN_MOTION_DDOT":"0.0000000000000","DECAY_DATE":null,"RA_OF_ASC_NODE":"149.1978","BSTAR":"0.00000531500000","CLASSIFICATION_TYPE":"U","LAUNCH_DATE":"2021-03-14","NORAD_CAT_ID":"47882","OBJECT_ID":"2021-021Y","SEMIMAJOR_AXIS":"6925.376","REV_AT_EPOCH":"6226","OBJECT_NAME":"STARLINK-2340","MEAN_ELEMENT_THEORY":"SGP4","TLE_LINE2":"2 47882  53.0548 149.1978 0001411  58.6342 301.4785 15.06391138 62261","APOAPSIS":"548.218","COUNTRY_CODE":"US","ECCENTRICITY":"0.00014110","GP_ID":"201890899"},{"CLASSIFICATION_TYPE":"U","BSTAR":"0.00006512900000","RA_OF_ASC_NODE":"154.0281","DECAY_DATE":null,"MEAN_MOTION_DDOT":"0.0000000000000","CENTER_NAME":"EARTH","SITE":"AFETR","REV_AT_EPOCH":"6284","SEMIMAJOR_AXIS":"6925.348","OBJECT_ID":"2021-021Z","LAUNCH_DATE":"2021-03-14","NORAD_CAT_ID":"47883","COUNTRY_CODE":"US","APOAPSIS":"548.390","TLE_LINE2":"2 47883  53.0534 154.0281 0001700  50.0174 310.0964 15.06400309 62849","OBJECT_NAME":"STARLINK-2342","MEAN_ELEMENT_THEORY":"SGP4","GP_ID":"201880244","ECCENTRICITY":"0.00017000","RCS_SIZE":"LARGE","PERIOD":"95.592","ARG_OF_PERICENTER":"50.0174","MEAN_ANOMALY":"310.0964","MEAN_MOTION_DOT":"0.00000689","FILE":"3412883","ELEMENT_SET_NO":"999","OBJECT_TYPE":"PAYLOAD","PERIAPSIS":"546.035","EPHEMERIS_TYPE":"0","EPOCH":"2022-04-23T12:36:52.568352","REF_FRAME":"TEME","TLE_LINE1":"1 47883U 21021Z   22113.52560843  .00000689  00000-0  65129-4 0  9998","INCLINATION":"53.0534","TIME_SYSTEM":"UTC","MEAN_MOTION":"15.06400309"},{"TLE_LINE2":"2 47884  53.0545 159.4080 0001793  48.3425 311.7717 15.06396858 62587","MEAN_ELEMENT_THEORY":"SGP4","OBJECT_NAME":"STARLINK-2343","APOAPSIS":"548.465","COUNTRY_CODE":"US","ECCENTRICITY":"0.00017930","GP_ID":"201880494","MEAN_MOTION_DDOT":"0.0000000000000","CLASSIFICATION_TYPE":"U","BSTAR":"0.00006202700000","DECAY_DATE":null,"RA_OF_ASC_NODE":"159.4080","SITE":"AFETR","CENTER_NAME":"EARTH","SEMIMAJOR_AXIS":"6925.358","REV_AT_EPOCH":"6258","NORAD_CAT_ID":"47884","LAUNCH_DATE":"2021-03-14","OBJECT_ID":"2021-021AA","EPOCH":"2022-04-23T10:36:46.889568","TLE_LINE1":"1 47884U 21021AA  22113.44220937  .00000642  00000-0  62027-4 0  9990","REF_FRAME":"TEME","TIME_SYSTEM":"UTC","INCLINATION":"53.0545","MEAN_MOTION":"15.06396858","PERIOD":"95.592","RCS_SIZE":"LARGE","MEAN_ANOMALY":"311.7717","MEAN_MOTION_DOT":"0.00000642","ARG_OF_PERICENTER":"48.3425","OBJECT_TYPE":"PAYLOAD","FILE":"3412883","ELEMENT_SET_NO":"999","PERIAPSIS":"545.981","EPHEMERIS_TYPE":"0"},{"ECCENTRICITY":"0.00017110","GP_ID":"201881744","APOAPSIS":"548.427","COUNTRY_CODE":"US","MEAN_ELEMENT_THEORY":"SGP4","OBJECT_NAME":"STARLINK-2344","TLE_LINE2":"2 47885  53.0549 164.1269 0001711  50.6740 309.4400 15.06390581 62681","OBJECT_ID":"2021-021AB","LAUNCH_DATE":"2021-03-14","NORAD_CAT_ID":"47885","REV_AT_EPOCH":"6268","SEMIMAJOR_AXIS":"6925.377","CENTER_NAME":"EARTH","SITE":"AFETR","DECAY_DATE":null,"RA_OF_ASC_NODE":"164.1269","BSTAR":"-0.00007426100000","CLASSIFICATION_TYPE":"U","MEAN_MOTION_DDOT":"0.0000000000000","MEAN_MOTION":"15.06390581","INCLINATION":"53.0549","TIME_SYSTEM":"UTC","REF_FRAME":"TEME","TLE_LINE1":"1 47885U 21021AB  22113.50257146 -.00001387  00000-0 -74261-4 0  9992","EPOCH":"2022-04-23T12:03:42.174144","EPHEMERIS_TYPE":"0","PERIAPSIS":"546.057","FILE":"3412883","ELEMENT_SET_NO":"999","OBJECT_TYPE":"PAYLOAD","ARG_OF_PERICENTER":"50.6740","MEAN_MOTION_DOT":"-0.00001387","MEAN_ANOMALY":"309.4400","RCS_SIZE":"LARGE","PERIOD":"95.593"},{"OBJECT_ID":"2021-021AC","LAUNCH_DATE":"2021-03-14","NORAD_CAT_ID":"47886","REV_AT_EPOCH":"6220","SEMIMAJOR_AXIS":"6925.379","CENTER_NAME":"EARTH","SITE":"AFETR","RA_OF_ASC_NODE":"153.5422","DECAY_DATE":null,"BSTAR":"0.00020795000000","CLASSIFICATION_TYPE":"U","MEAN_MOTION_DDOT":"0.0000000000000","GP_ID":"201886547","ECCENTRICITY":"0.00018490","APOAPSIS":"548.525","COUNTRY_CODE":"US","OBJECT_NAME":"STARLINK-2345","MEAN_ELEMENT_THEORY":"SGP4","TLE_LINE2":"2 47886  53.0552 153.5422 0001849  43.7581 316.3555 15.06389960 62202","EPHEMERIS_TYPE":"0","PERIAPSIS":"545.964","FILE":"3412970","ELEMENT_SET_NO":"999","OBJECT_TYPE":"PAYLOAD","ARG_OF_PERICENTER":"43.7581","MEAN_MOTION_DOT":"0.00002816","MEAN_ANOMALY":"316.3555","RCS_SIZE":"LARGE","PERIOD":"95.593","MEAN_MOTION":"15.06389960","INCLINATION":"53.0552","TIME_SYSTEM":"UTC","REF_FRAME":"TEME","TLE_LINE1":"1 47886U 21021AC  22113.63523555  .00002816  00000-0  20795-3 0  9995","EPOCH":"2022-04-23T15:14:44.351520"},{"APOAPSIS":"548.361","COUNTRY_CODE":"US","TLE_LINE2":"2 47887  53.0533 159.0158 0001614  57.6257 302.4888 15.06390180 62608","OBJECT_NAME":"STARLINK-2346","MEAN_ELEMENT_THEORY":"SGP4","GP_ID":"201880744","ECCENTRICITY":"0.00016140","BSTAR":"-0.00008617700000","CLASSIFICATION_TYPE":"U","DECAY_DATE":null,"RA_OF_ASC_NODE":"159.0158","MEAN_MOTION_DDOT":"0.0000000000000","CENTER_NAME":"EARTH","SITE":"AFETR","REV_AT_EPOCH":"6260","SEMIMAJOR_AXIS":"6925.379","OBJECT_ID":"2021-021AD","LAUNCH_DATE":"2021-03-14","NORAD_CAT_ID":"47887","EPOCH":"2022-04-23T12:38:52.764576","REF_FRAME":"TEME","TLE_LINE1":"1 47887U 21021AD  22113.52699959 -.00001565  00000-0 -86177-4 0  9995","INCLINATION":"53.0533","TIME_SYSTEM":"UTC","MEAN_MOTION":"15.06390180","RCS_SIZE":"LARGE","PERIOD":"95.593","ARG_OF_PERICENTER":"57.6257","MEAN_ANOMALY":"302.4888","MEAN_MOTION_DOT":"-0.00001565","ELEMENT_SET_NO":"999","FILE":"3412883","OBJECT_TYPE":"PAYLOAD","PERIAPSIS":"546.126","EPHEMERIS_TYPE":"0"},{"MEAN_MOTION":"15.06398038","INCLINATION":"53.0551","TIME_SYSTEM":"UTC","REF_FRAME":"TEME","TLE_LINE1":"1 47888U 21021AE  22113.48368575  .00001340  00000-0  10886-3 0  9990","EPOCH":"2022-04-23T11:36:30.448800","PERIAPSIS":"545.815","EPHEMERIS_TYPE":"0","ELEMENT_SET_NO":"999","FILE":"3412883","OBJECT_TYPE":"PAYLOAD","ARG_OF_PERICENTER":"34.3644","MEAN_MOTION_DOT":"0.00001340","MEAN_ANOMALY":"325.7476","RCS_SIZE":"LARGE","PERIOD":"95.592","GP_ID":"201880994","ECCENTRICITY":"0.00020280","APOAPSIS":"548.624","COUNTRY_CODE":"US","TLE_LINE2":"2 47888  53.0551 149.2191 0002028  34.3644 325.7476 15.06398038 62745","OBJECT_NAME":"STARLINK-2348","MEAN_ELEMENT_THEORY":"SGP4","OBJECT_ID":"2021-021AE","LAUNCH_DATE":"2021-03-14","NORAD_CAT_ID":"47888","REV_AT_EPOCH":"6274","SEMIMAJOR_AXIS":"6925.355","CENTER_NAME":"EARTH","SITE":"AFETR","CLASSIFICATION_TYPE":"U","BSTAR":"0.00010886000000","RA_OF_ASC_NODE":"149.2191","DECAY_DATE":null,"MEAN_MOTION_DDOT":"0.0000000000000"},{"PERIAPSIS":"545.837","EPHEMERIS_TYPE":"0","ELEMENT_SET_NO":"999","FILE":"3412883","OBJECT_TYPE":"PAYLOAD","ARG_OF_PERICENTER":"45.1997","MEAN_MOTION_DOT":"0.00000799","MEAN_ANOMALY":"314.9156","RCS_SIZE":"LARGE","PERIOD":"95.593","MEAN_MOTION":"15.06393528","INCLINATION":"53.0563","TIME_SYSTEM":"UTC","REF_FRAME":"TEME","TLE_LINE1":"1 47889U 21021AF  22113.36204410  .00000799  00000-0  72561-4 0  9991","EPOCH":"2022-04-23T08:41:20.610240","OBJECT_ID":"2021-021AF","NORAD_CAT_ID":"47889","LAUNCH_DATE":"2021-03-14","REV_AT_EPOCH":"6277","SEMIMAJOR_AXIS":"6925.368","CENTER_NAME":"EARTH","SITE":"AFETR","BSTAR":"0.00007256100000","CLASSIFICATION_TYPE":"U","RA_OF_ASC_NODE":"149.7617","DECAY_DATE":null,"MEAN_MOTION_DDOT":"0.0000000000000","ECCENTRICITY":"0.00020160","GP_ID":"201881245","COUNTRY_CODE":"US","APOAPSIS":"548.630","TLE_LINE2":"2 47889  53.0563 149.7617 0002016  45.1997 314.9156 15.06393528 62772","OBJECT_NAME":"STARLINK-2349","MEAN_ELEMENT_THEORY":"SGP4"},{"RCS_SIZE":"LARGE","PERIOD":"93.375","ARG_OF_PERICENTER":"19.0613","MEAN_ANOMALY":"341.0479","MEAN_MOTION_DOT":"0.00003733","ELEMENT_SET_NO":"999","FILE":"3412883","OBJECT_TYPE":"PAYLOAD","EPHEMERIS_TYPE":"0","PERIAPSIS":"438.124","EPOCH":"2022-04-23T06:33:23.310144","REF_FRAME":"TEME","TLE_LINE1":"1 47890U 21021AG  22113.27318646  .00003733  00000-0  95176-4 0  9998","INCLINATION":"53.0539","TIME_SYSTEM":"UTC","MEAN_MOTION":"15.42165707","RA_OF_ASC_NODE":"116.0011","DECAY_DATE":null,"CLASSIFICATION_TYPE":"U","BSTAR":"0.00009517600000","MEAN_MOTION_DDOT":"0.0000000000000","CENTER_NAME":"EARTH","SITE":"AFETR","REV_AT_EPOCH":"6224","SEMIMAJOR_AXIS":"6817.856","OBJECT_ID":"2021-021AG","NORAD_CAT_ID":"47890","LAUNCH_DATE":"2021-03-14","APOAPSIS":"441.318","COUNTRY_CODE":"US","MEAN_ELEMENT_THEORY":"SGP4","OBJECT_NAME":"STARLINK-2350","TLE_LINE2":"2 47890  53.0539 116.0011 0002342  19.0613 341.0479 15.42165707 62246","GP_ID":"201881995","ECCENTRICITY":"0.00023420"}];
